start=new Date('2022-04-11T00:00:00.000Z').valueOf();
sats=[{"BSTAR":"-0.00000949410000","TLE_LINE1":"1 47625U 21012F   22100.87407727 -.00000423  00000-0 -94941-5 0  9990","RA_OF_ASC_NODE":"5.8286","REV_AT_EPOCH":"6462","TIME_SYSTEM":"UTC","DECAY_DATE":null,"COUNTRY_CODE":"US","SEMIMAJOR_AXIS":"6925.337","SITE":"AFETR","EPHEMERIS_TYPE":"0","MEAN_MOTION_DDOT":"0.0000000000000","CLASSIFICATION_TYPE":"U","FILE":"3396586","OBJECT_ID":"2021-012F","INCLINATION":"53.0573","OBJECT_TYPE":"PAYLOAD","MEAN_ELEMENT_THEORY":"SGP4","MEAN_ANOMALY":"296.5630","ECCENTRICITY":"0.00014150","LAUNCH_DATE":"2021-02-16","ARG_OF_PERICENTER":"63.5504","EPOCH":"2022-04-10T20:58:40.276128","TLE_LINE2":"2 47625  53.0573   5.8286 0001415  63.5504 296.5630 15.06403906 64625","OBJECT_NAME":"STARLINK-1704","NORAD_CAT_ID":"47625","RCS_SIZE":"LARGE","MEAN_MOTION_DOT":"-0.00000423","ELEMENT_SET_NO":"999","PERIOD":"95.592","PERIAPSIS":"546.222","MEAN_MOTION":"15.06403906","APOAPSIS":"548.182","GP_ID":"200940547","REF_FRAME":"TEME","CENTER_NAME":"EARTH"},{"PERIOD":"95.592","PERIAPSIS":"546.027","ELEMENT_SET_NO":"999","NORAD_CAT_ID":"47626","RCS_SIZE":"LARGE","MEAN_MOTION_DOT":"0.00008670","REF_FRAME":"TEME","CENTER_NAME":"EARTH","APOAPSIS":"548.350","MEAN_MOTION":"15.06408131","GP_ID":"200941799","COUNTRY_CODE":"US","SEMIMAJOR_AXIS":"6925.324","SITE":"AFETR","BSTAR":"0.00060011000000","TLE_LINE1":"1 47626U 21012G   22100.79299000  .00008670  00000-0  60011-3 0  9994","RA_OF_ASC_NODE":"6.1944","REV_AT_EPOCH":"6461","DECAY_DATE":null,"TIME_SYSTEM":"UTC","OBJECT_ID":"2021-012G","FILE":"3396586","MEAN_ANOMALY":"296.1579","OBJECT_TYPE":"PAYLOAD","MEAN_ELEMENT_THEORY":"SGP4","INCLINATION":"53.0557","LAUNCH_DATE":"2021-02-16","ECCENTRICITY":"0.00016770","TLE_LINE2":"2 47626  53.0557   6.1944 0001677  63.9583 296.1579 15.06408131 64616","OBJECT_NAME":"STARLINK-1761","EPOCH":"2022-04-10T19:01:54.336000","ARG_OF_PERICENTER":"63.9583","MEAN_MOTION_DDOT":"0.0000000000000","EPHEMERIS_TYPE":"0","CLASSIFICATION_TYPE":"U"},{"CENTER_NAME":"EARTH","REF_FRAME":"TEME","GP_ID":"200942050","APOAPSIS":"548.541","MEAN_MOTION":"15.06372987","PERIAPSIS":"546.052","PERIOD":"95.594","ELEMENT_SET_NO":"999","RCS_SIZE":"LARGE","MEAN_MOTION_DOT":"0.00064357","NORAD_CAT_ID":"47627","LAUNCH_DATE":"2021-02-16","ECCENTRICITY":"0.00017970","OBJECT_NAME":"STARLINK-1972","TLE_LINE2":"2 47627  53.0527 270.6197 0001797  45.5544 208.2169 15.06372987  3608","EPOCH":"2022-04-10T22:00:00.999936","ARG_OF_PERICENTER":"45.5544","OBJECT_ID":"2021-012H","FILE":"3396586","INCLINATION":"53.0527","OBJECT_TYPE":"PAYLOAD","MEAN_ELEMENT_THEORY":"SGP4","MEAN_ANOMALY":"208.2169","CLASSIFICATION_TYPE":"U","EPHEMERIS_TYPE":"0","MEAN_MOTION_DDOT":"0.0000000000000","SITE":"AFETR","COUNTRY_CODE":"US","SEMIMAJOR_AXIS":"6925.431","DECAY_DATE":null,"TIME_SYSTEM":"UTC","TLE_LINE1":"1 47627U 21012H   22100.91667824  .00064357  00000-0  43033-2 0  9990","BSTAR":"0.00430330000000","REV_AT_EPOCH":"360","RA_OF_ASC_NODE":"270.6197"},{"SITE":"AFETR","COUNTRY_CODE":"US","SEMIMAJOR_AXIS":"6925.325","TIME_SYSTEM":"UTC","DECAY_DATE":null,"TLE_LINE1":"1 47628U 21012J   22100.82984447  .00003185  00000-0  23255-3 0  9991","BSTAR":"0.00023255000000","REV_AT_EPOCH":"6462","RA_OF_ASC_NODE":"6.0257","ECCENTRICITY":"0.00015830","LAUNCH_DATE":"2021-02-16","ARG_OF_PERICENTER":"71.0963","EPOCH":"2022-04-10T19:54:58.562208","TLE_LINE2":"2 47628  53.0552   6.0257 0001583  71.0963 289.0198 15.06407618 64625","OBJECT_NAME":"STARLINK-1973","FILE":"3396586","OBJECT_ID":"2021-012J","OBJECT_TYPE":"PAYLOAD","INCLINATION":"53.0552","MEAN_ELEMENT_THEORY":"SGP4","MEAN_ANOMALY":"289.0198","CLASSIFICATION_TYPE":"U","MEAN_MOTION_DDOT":"0.0000000000000","EPHEMERIS_TYPE":"0","ELEMENT_SET_NO":"999","PERIAPSIS":"546.094","PERIOD":"95.592","RCS_SIZE":"LARGE","MEAN_MOTION_DOT":"0.00003185","NORAD_CAT_ID":"47628","CENTER_NAME":"EARTH","REF_FRAME":"TEME","GP_ID":"200940798","MEAN_MOTION":"15.06407618","APOAPSIS":"548.286"},{"PERIAPSIS":"546.002","PERIOD":"95.591","ELEMENT_SET_NO":"999","NORAD_CAT_ID":"47629","RCS_SIZE":"LARGE","MEAN_MOTION_DOT":"-0.00026820","REF_FRAME":"TEME","CENTER_NAME":"EARTH","APOAPSIS":"548.299","MEAN_MOTION":"15.06420576","GP_ID":"200941048","COUNTRY_CODE":"US","SEMIMAJOR_AXIS":"6925.285","SITE":"AFETR","BSTAR":"-0.00178740000000","TLE_LINE1":"1 47629U 21012K   22100.91667824 -.00026820  00000-0 -17874-2 0  9991","RA_OF_ASC_NODE":"245.6259","REV_AT_EPOCH":"360","DECAY_DATE":null,"TIME_SYSTEM":"UTC","FILE":"3396586","OBJECT_ID":"2021-012K","OBJECT_TYPE":"PAYLOAD","MEAN_ELEMENT_THEORY":"SGP4","MEAN_ANOMALY":"156.5655","INCLINATION":"53.0540","LAUNCH_DATE":"2021-02-16","ECCENTRICITY":"0.00016590","OBJECT_NAME":"STARLINK-1974","TLE_LINE2":"2 47629  53.0540 245.6259 0001659  54.6919 156.5655 15.06420576  3603","EPOCH":"2022-04-10T22:00:00.999936","ARG_OF_PERICENTER":"54.6919","MEAN_MOTION_DDOT":"0.0000000000000","EPHEMERIS_TYPE":"0","CLASSIFICATION_TYPE":"U"},{"GP_ID":"200941299","MEAN_MOTION":"15.06404118","APOAPSIS":"548.519","CENTER_NAME":"EARTH","REF_FRAME":"TEME","MEAN_MOTION_DOT":"0.00000745","RCS_SIZE":"LARGE","NORAD_CAT_ID":"47630","ELEMENT_SET_NO":"999","PERIOD":"95.592","PERIAPSIS":"545.883","CLASSIFICATION_TYPE":"U","MEAN_MOTION_DDOT":"0.0000000000000","EPHEMERIS_TYPE":"0","ARG_OF_PERICENTER":"48.3151","TLE_LINE2":"2 47630  53.0564 346.0413 0001903  48.3151 311.8001 15.06404118 64881","OBJECT_NAME":"STARLINK-1983","EPOCH":"2022-04-10T19:50:57.412896","ECCENTRICITY":"0.00019030","LAUNCH_DATE":"2021-02-16","MEAN_ELEMENT_THEORY":"SGP4","OBJECT_TYPE":"PAYLOAD","MEAN_ANOMALY":"311.8001","INCLINATION":"53.0564","FILE":"3396586","OBJECT_ID":"2021-012L","TIME_SYSTEM":"UTC","DECAY_DATE":null,"RA_OF_ASC_NODE":"346.0413","REV_AT_EPOCH":"6488","BSTAR":"0.00006890300000","TLE_LINE1":"1 47630U 21012L   22100.82705339  .00000745  00000-0  68903-4 0  9994","SITE":"AFETR","SEMIMAJOR_AXIS":"6925.336","COUNTRY_CODE":"US"},{"DECAY_DATE":null,"TIME_SYSTEM":"UTC","TLE_LINE1":"1 47632U 21012N   22100.91667824  .00021268  00000-0  14426-2 0  9994","BSTAR":"0.00144260000000","REV_AT_EPOCH":"361","RA_OF_ASC_NODE":"270.6430","SITE":"AFETR","COUNTRY_CODE":"US","SEMIMAJOR_AXIS":"6925.365","CLASSIFICATION_TYPE":"U","MEAN_MOTION_DDOT":"0.0000000000000","EPHEMERIS_TYPE":"0","LAUNCH_DATE":"2021-02-16","ECCENTRICITY":"0.00015160","TLE_LINE2":"2 47632  53.0540 270.6430 0001516  49.5771  69.3266 15.06394687  3610","OBJECT_NAME":"STARLINK-1992","EPOCH":"2022-04-10T22:00:00.999936","ARG_OF_PERICENTER":"49.5771","OBJECT_ID":"2021-012N","FILE":"3396586","MEAN_ELEMENT_THEORY":"SGP4","OBJECT_TYPE":"PAYLOAD","INCLINATION":"53.0540","MEAN_ANOMALY":"69.3266","RCS_SIZE":"LARGE","MEAN_MOTION_DOT":"0.00021268","NORAD_CAT_ID":"47632","PERIAPSIS":"546.180","PERIOD":"95.592","ELEMENT_SET_NO":"999","GP_ID":"200941550","APOAPSIS":"548.280","MEAN_MOTION":"15.06394687","CENTER_NAME":"EARTH","REF_FRAME":"TEME"},{"SEMIMAJOR_AXIS":"6925.317","COUNTRY_CODE":"US","SITE":"AFETR","REV_AT_EPOCH":"6458","RA_OF_ASC_NODE":"7.7346","BSTAR":"0.00069163000000","TLE_LINE1":"1 47633U 21012P   22100.44651041  .00010038  00000-0  69163-3 0  9999","TIME_SYSTEM":"UTC","DECAY_DATE":null,"MEAN_ANOMALY":"294.1978","OBJECT_TYPE":"PAYLOAD","MEAN_ELEMENT_THEORY":"SGP4","INCLINATION":"53.0554","OBJECT_ID":"2021-012P","FILE":"3396223","ARG_OF_PERICENTER":"65.9178","EPOCH":"2022-04-10T10:42:58.499424","TLE_LINE2":"2 47633  53.0554   7.7346 0001590  65.9178 294.1978 15.06410186 64580","OBJECT_NAME":"STARLINK-2009","ECCENTRICITY":"0.00015900","LAUNCH_DATE":"2021-02-16","EPHEMERIS_TYPE":"0","MEAN_MOTION_DDOT":"0.0000000000000","CLASSIFICATION_TYPE":"U","ELEMENT_SET_NO":"999","PERIOD":"95.591","PERIAPSIS":"546.081","NORAD_CAT_ID":"47633","MEAN_MOTION_DOT":"0.00010038","RCS_SIZE":"LARGE","REF_FRAME":"TEME","CENTER_NAME":"EARTH","MEAN_MOTION":"15.06410186","APOAPSIS":"548.283","GP_ID":"200907925"},{"RCS_SIZE":"LARGE","MEAN_MOTION_DOT":"0.00000694","NORAD_CAT_ID":"47634","PERIAPSIS":"546.207","PERIOD":"95.592","ELEMENT_SET_NO":"999","GP_ID":"200940548","APOAPSIS":"548.161","MEAN_MOTION":"15.06409655","CENTER_NAME":"EARTH","REF_FRAME":"TEME","DECAY_DATE":null,"TIME_SYSTEM":"UTC","BSTAR":"0.00006544400000","TLE_LINE1":"1 47634U 21012Q   22100.88881111  .00000694  00000-0  65444-4 0  9997","RA_OF_ASC_NODE":"5.7545","REV_AT_EPOCH":"6462","SITE":"AFETR","COUNTRY_CODE":"US","SEMIMAJOR_AXIS":"6925.319","CLASSIFICATION_TYPE":"U","MEAN_MOTION_DDOT":"0.0000000000000","EPHEMERIS_TYPE":"0","LAUNCH_DATE":"2021-02-16","ECCENTRICITY":"0.00014110","TLE_LINE2":"2 47634  53.0561   5.7545 0001411  72.6184 287.4959 15.06409655 64620","EPOCH":"2022-04-10T21:19:53.279904","OBJECT_NAME":"STARLINK-2010","ARG_OF_PERICENTER":"72.6184","FILE":"3396586","OBJECT_ID":"2021-012Q","OBJECT_TYPE":"PAYLOAD","MEAN_ELEMENT_THEORY":"SGP4","INCLINATION":"53.0561","MEAN_ANOMALY":"287.4959"},{"SITE":"AFETR","SEMIMAJOR_AXIS":"6925.347","COUNTRY_CODE":"US","TIME_SYSTEM":"UTC","DECAY_DATE":null,"REV_AT_EPOCH":"361","RA_OF_ASC_NODE":"270.5409","BSTAR":"0.00108510000000","TLE_LINE1":"1 47635U 21012R   22100.91667824  .00015918  00000-0  10851-2 0  9990","ARG_OF_PERICENTER":"66.7582","EPOCH":"2022-04-10T22:00:00.999936","TLE_LINE2":"2 47635  53.0592 270.5409 0001408  66.7582 307.0145 15.06400412  3618","OBJECT_NAME":"STARLINK-2012","ECCENTRICITY":"0.00014080","LAUNCH_DATE":"2021-02-16","MEAN_ELEMENT_THEORY":"SGP4","OBJECT_TYPE":"PAYLOAD","MEAN_ANOMALY":"307.0145","INCLINATION":"53.0592","FILE":"3396586","OBJECT_ID":"2021-012R","CLASSIFICATION_TYPE":"U","EPHEMERIS_TYPE":"0","MEAN_MOTION_DDOT":"0.0000000000000","ELEMENT_SET_NO":"999","PERIAPSIS":"546.237","PERIOD":"95.592","MEAN_MOTION_DOT":"0.00015918","RCS_SIZE":"LARGE","NORAD_CAT_ID":"47635","CENTER_NAME":"EARTH","REF_FRAME":"TEME","GP_ID":"200941800","MEAN_MOTION":"15.06400412","APOAPSIS":"548.187"}];
